ONEWEB-0298             
1 49087U 21075N   23289.47502156 -.00000021  00000+0 -86118-4 0  9999
2 49087  87.9269 199.5790 0001777  82.1766 277.9567 13.17651270105263
ONEWEB-0299             
1 49088U 21075P   23289.47713949 -.00000032  00000+0 -11483-3 0  9998
2 49088  87.9200 199.5797 0001695  84.0780 276.0545 13.17647940105245
ONEWEB-0300             
1 49089U 21075Q   23289.41152396  .00000222  00000+0  58226-3 0  9991
2 49089  87.9064 184.4933 0001903  79.6613 280.4730 13.12440145107347
ONEWEB-0301             
1 49090U 21075R   23289.62542280  .00000410  00000+0  11036-2 0  9997
2 49090  87.9067 184.4534 0002123  73.4077 286.7285 13.12440882106734
ONEWEB-0302             
1 49091U 21075S   23289.46129626  .00000399  00000+0  10736-2 0  9997
2 49091  87.9068 184.4826 0001486  76.1844 283.9449 13.12444017106693
ONEWEB-0304             
1 49092U 21075T   23289.45393393  .00000049  00000+0  93846-4 0  9998
2 49092  87.9258 199.5842 0001769  80.9982 279.1350 13.17648634105211
ONEWEB-0305             
1 49093U 21075U   23289.29151076  .00000156  00000+0  36930-3 0  9990
2 49093  87.9180 199.6098 0001545  90.6969 269.4339 13.17648421105229
ONEWEB-0308             
1 49094U 21075V   23289.60846423  .00000164  00000+0  41978-3 0  9990
2 49094  87.9067 184.4558 0001865  74.0749 286.0585 13.12445518106725
